NOAA 18                 
1 28654U 05018A   26079.51196877  .00000039  00000+0  43503-4 0  9997
2 28654  98.8141 160.4669 0014959  46.5575 313.6840 14.13712905 73783
NOAA 19                 
1 33591U 09005A   26079.42428733  .00000036  00000+0  42984-4 0  9991
2 33591  98.9587 150.2123 0012689 281.9737  78.0013 14.13458766881940
SUOMI NPP               
1 37849U 11061A   26077.76528043  .00000067  00000+0  52991-4 0  9999
2 37849  98.7881  19.2966 0000907 182.5873 177.5298 14.19546100745610
NOAA 20 (JPSS-1)        
1 43013U 17073A   26079.54213210  .00000055  00000+0  47033-4 0  9991
2 43013  98.7705  19.8222 0001639 123.5449 236.5884 14.19538739431891
