[{"OBJECT_NAME":"NOAA 18","OBJECT_ID":"2005-018A","EPOCH":"2026-03-20T12:17:14.101728","MEAN_MOTION":14.13712905,"ECCENTRICITY":0.0014959,"INCLINATION":98.8141,"RA_OF_ASC_NODE":160.4669,"ARG_OF_PERICENTER":46.5575,"MEAN_ANOMALY":313.684,"EPHEMERIS_TYPE":0,"CLASSIFICATION_TYPE":"U","NORAD_CAT_ID":28654,"ELEMENT_SET_NO":999,"REV_AT_EPOCH":7378,"BSTAR":4.3502808e-5,"MEAN_MOTION_DOT":3.9e-7,"MEAN_MOTION_DDOT":0},{"OBJECT_NAME":"NOAA 19","OBJECT_ID":"2009-005A","EPOCH":"2026-03-20T10:10:58.425312","MEAN_MOTION":14.13458766,"ECCENTRICITY":0.00126899,"INCLINATION":98.9587,"RA_OF_ASC_NODE":150.2123,"ARG_OF_PERICENTER":281.9737,"MEAN_ANOMALY":78.0013,"EPHEMERIS_TYPE":0,"CLASSIFICATION_TYPE":"U","NORAD_CAT_ID":33591,"ELEMENT_SET_NO":999,"REV_AT_EPOCH":88194,"BSTAR":4.298401e-5,"MEAN_MOTION_DOT":3.6e-7,"MEAN_MOTION_DDOT":0},{"OBJECT_NAME":"SUOMI NPP","OBJECT_ID":"2011-061A","EPOCH":"2026-03-18T18:22:00.229152","MEAN_MOTION":14.195461,"ECCENTRICITY":9.07e-5,"INCLINATION":98.7881,"RA_OF_ASC_NODE":19.2966,"ARG_OF_PERICENTER":182.5873,"MEAN_ANOMALY":177.5298,"EPHEMERIS_TYPE":0,"CLASSIFICATION_TYPE":"U","NORAD_CAT_ID":37849,"ELEMENT_SET_NO":999,"REV_AT_EPOCH":74561,"BSTAR":5.2991e-5,"MEAN_MOTION_DOT":6.7e-7,"MEAN_MOTION_DDOT":0},{"OBJECT_NAME":"NOAA 20 (JPSS-1)","OBJECT_ID":"2017-073A","EPOCH":"2026-03-20T13:00:40.213440","MEAN_MOTION":14.19538739,"ECCENTRICITY":0.00016393,"INCLINATION":98.7705,"RA_OF_ASC_NODE":19.8222,"ARG_OF_PERICENTER":123.5449,"MEAN_ANOMALY":236.5884,"EPHEMERIS_TYPE":0,"CLASSIFICATION_TYPE":"U","NORAD_CAT_ID":43013,"ELEMENT_SET_NO":999,"REV_AT_EPOCH":43189,"BSTAR":4.7033216e-5,"MEAN_MOTION_DOT":5.5e-7,"MEAN_MOTION_DDOT":0}]
